[{"OBJECT_NAME":"ONEWEB-0662","OBJECT_ID":"2023-029AC","EPOCH":"2026-01-20T07:11:22.537824","MEAN_MOTION":13.14504333,"ECCENTRICITY":0.00016102,"INCLINATION":87.9026,"RA_OF_ASC_NODE":319.2361,"ARG_OF_PERICENTER":66.2162,"MEAN_ANOMALY":293.9137,"EPHEMERIS_TYPE":0,"CLASSIFICATION_TYPE":"U","NORAD_CAT_ID":55822,"ELEMENT_SET_NO":999,"REV_AT_EPOCH":14000,"BSTAR":-0.0001989232,"MEAN_MOTION_DOT":-6.1e-7,"MEAN_MOTION_DDOT":0},{"OBJECT_NAME":"ONEWEB-0663","OBJECT_ID":"2023-029AD","EPOCH":"2026-01-20T07:05:24.845280","MEAN_MOTION":13.2085719,"ECCENTRICITY":0.00013942,"INCLINATION":87.9245,"RA_OF_ASC_NODE":304.0035,"ARG_OF_PERICENTER":62.9837,"MEAN_ANOMALY":297.1439,"EPHEMERIS_TYPE":0,"CLASSIFICATION_TYPE":"U","NORAD_CAT_ID":55823,"ELEMENT_SET_NO":999,"REV_AT_EPOCH":14162,"BSTAR":0.00013696221,"MEAN_MOTION_DOT":6.9e-7,"MEAN_MOTION_DDOT":0},{"OBJECT_NAME":"ONEWEB-0664","OBJECT_ID":"2023-029AE","EPOCH":"2026-01-20T05:43:21.812160","MEAN_MOTION":13.20773194,"ECCENTRICITY":0.00019517,"INCLINATION":87.9226,"RA_OF_ASC_NODE":304.0142,"ARG_OF_PERICENTER":68.0709,"MEAN_ANOMALY":292.0632,"EPHEMERIS_TYPE":0,"CLASSIFICATION_TYPE":"U","NORAD_CAT_ID":55824,"ELEMENT_SET_NO":999,"REV_AT_EPOCH":14161,"BSTAR":0.00011156416,"MEAN_MOTION_DOT":5.8e-7,"MEAN_MOTION_DDOT":0},{"OBJECT_NAME":"ONEWEB-0665","OBJECT_ID":"2023-029AF","EPOCH":"2026-01-20T06:16:35.599296","MEAN_MOTION":13.14503303,"ECCENTRICITY":0.00015533,"INCLINATION":87.9025,"RA_OF_ASC_NODE":319.2159,"ARG_OF_PERICENTER":67.1716,"MEAN_ANOMALY":292.9577,"EPHEMERIS_TYPE":0,"CLASSIFICATION_TYPE":"U","NORAD_CAT_ID":55825,"ELEMENT_SET_NO":999,"REV_AT_EPOCH":13997,"BSTAR":0.00033232911,"MEAN_MOTION_DOT":1.36e-6,"MEAN_MOTION_DDOT":0},{"OBJECT_NAME":"ONEWEB-0666","OBJECT_ID":"2023-029AG","EPOCH":"2026-01-20T05:34:16.653216","MEAN_MOTION":13.20771862,"ECCENTRICITY":0.00020302,"INCLINATION":87.9226,"RA_OF_ASC_NODE":304.0051,"ARG_OF_PERICENTER":96.6828,"MEAN_ANOMALY":263.4537,"EPHEMERIS_TYPE":0,"CLASSIFICATION_TYPE":"U","NORAD_CAT_ID":55826,"ELEMENT_SET_NO":999,"REV_AT_EPOCH":14162,"BSTAR":0.0001718485,"MEAN_MOTION_DOT":8.3e-7,"MEAN_MOTION_DDOT":0},{"OBJECT_NAME":"ONEWEB-0667","OBJECT_ID":"2023-029AH","EPOCH":"2026-01-20T07:14:17.060640","MEAN_MOTION":13.20771735,"ECCENTRICITY":0.0001677,"INCLINATION":87.9237,"RA_OF_ASC_NODE":303.9278,"ARG_OF_PERICENTER":69.7288,"MEAN_ANOMALY":290.4026,"EPHEMERIS_TYPE":0,"CLASSIFICATION_TYPE":"U","NORAD_CAT_ID":55827,"ELEMENT_SET_NO":999,"REV_AT_EPOCH":14162,"BSTAR":9.336412e-5,"MEAN_MOTION_DOT":5.1e-7,"MEAN_MOTION_DDOT":0},{"OBJECT_NAME":"ONEWEB-0669","OBJECT_ID":"2023-029AJ","EPOCH":"2026-01-20T05:18:22.689216","MEAN_MOTION":13.20771314,"ECCENTRICITY":0.00023169,"INCLINATION":87.9224,"RA_OF_ASC_NODE":303.9738,"ARG_OF_PERICENTER":76.5393,"MEAN_ANOMALY":283.5998,"EPHEMERIS_TYPE":0,"CLASSIFICATION_TYPE":"U","NORAD_CAT_ID":55828,"ELEMENT_SET_NO":999,"REV_AT_EPOCH":14161,"BSTAR":8.9799322e-5,"MEAN_MOTION_DOT":4.9e-7,"MEAN_MOTION_DDOT":0},{"OBJECT_NAME":"ONEWEB-0670","OBJECT_ID":"2023-029AK","EPOCH":"2026-01-20T05:44:36.698496","MEAN_MOTION":13.14501442,"ECCENTRICITY":0.0001866,"INCLINATION":87.9025,"RA_OF_ASC_NODE":319.2392,"ARG_OF_PERICENTER":66.4274,"MEAN_ANOMALY":293.7052,"EPHEMERIS_TYPE":0,"CLASSIFICATION_TYPE":"U","NORAD_CAT_ID":55829,"ELEMENT_SET_NO":999,"REV_AT_EPOCH":13999,"BSTAR":-0.00076433775,"MEAN_MOTION_DOT":-2.71e-6,"MEAN_MOTION_DDOT":0},{"OBJECT_NAME":"ONEWEB-0671","OBJECT_ID":"2023-029AL","EPOCH":"2026-01-20T07:07:04.408320","MEAN_MOTION":13.19724997,"ECCENTRICITY":0.0001715,"INCLINATION":87.9235,"RA_OF_ASC_NODE":334.4096,"ARG_OF_PERICENTER":74.1258,"MEAN_ANOMALY":286.0064,"EPHEMERIS_TYPE":0,"CLASSIFICATION_TYPE":"U","NORAD_CAT_ID":55830,"ELEMENT_SET_NO":999,"REV_AT_EPOCH":13939,"BSTAR":0.00015282672,"MEAN_MOTION_DOT":7.4e-7,"MEAN_MOTION_DDOT":0},{"OBJECT_NAME":"ONEWEB-0672","OBJECT_ID":"2023-029AM","EPOCH":"2026-01-20T07:00:38.818080","MEAN_MOTION":13.20772738,"ECCENTRICITY":0.00018644,"INCLINATION":87.9231,"RA_OF_ASC_NODE":303.9422,"ARG_OF_PERICENTER":82.2878,"MEAN_ANOMALY":277.8467,"EPHEMERIS_TYPE":0,"CLASSIFICATION_TYPE":"U","NORAD_CAT_ID":55831,"ELEMENT_SET_NO":999,"REV_AT_EPOCH":14162,"BSTAR":0.00020332063,"MEAN_MOTION_DOT":9.6e-7,"MEAN_MOTION_DDOT":0},{"OBJECT_NAME":"ONEWEB-0673","OBJECT_ID":"2023-029AN","EPOCH":"2026-01-20T06:34:05.614176","MEAN_MOTION":13.19725306,"ECCENTRICITY":0.00017587,"INCLINATION":87.9244,"RA_OF_ASC_NODE":334.3985,"ARG_OF_PERICENTER":74.8584,"MEAN_ANOMALY":285.2743,"EPHEMERIS_TYPE":0,"CLASSIFICATION_TYPE":"U","NORAD_CAT_ID":55832,"ELEMENT_SET_NO":999,"REV_AT_EPOCH":13939,"BSTAR":5.90718e-6,"MEAN_MOTION_DOT":1.5e-7,"MEAN_MOTION_DDOT":0},{"OBJECT_NAME":"ONEWEB-0674","OBJECT_ID":"2023-029AP","EPOCH":"2026-01-20T06:48:34.329888","MEAN_MOTION":13.14503283,"ECCENTRICITY":0.00019617,"INCLINATION":87.9023,"RA_OF_ASC_NODE":319.2085,"ARG_OF_PERICENTER":64.7358,"MEAN_ANOMALY":295.3975,"EPHEMERIS_TYPE":0,"CLASSIFICATION_TYPE":"U","NORAD_CAT_ID":55833,"ELEMENT_SET_NO":999,"REV_AT_EPOCH":13998,"BSTAR":0.00072759237,"MEAN_MOTION_DOT":2.83e-6,"MEAN_MOTION_DDOT":0},{"OBJECT_NAME":"ONEWEB-0675","OBJECT_ID":"2023-029AQ","EPOCH":"2026-01-20T06:55:42.168864","MEAN_MOTION":13.19725984,"ECCENTRICITY":0.00017133,"INCLINATION":87.9228,"RA_OF_ASC_NODE":334.4165,"ARG_OF_PERICENTER":89.4031,"MEAN_ANOMALY":270.7298,"EPHEMERIS_TYPE":0,"CLASSIFICATION_TYPE":"U","NORAD_CAT_ID":55834,"ELEMENT_SET_NO":999,"REV_AT_EPOCH":13941,"BSTAR":0.00019031434,"MEAN_MOTION_DOT":8.9e-7,"MEAN_MOTION_DDOT":0},{"OBJECT_NAME":"ONEWEB-0720","OBJECT_ID":"2023-029AR","EPOCH":"2026-01-20T06:44:19.330656","MEAN_MOTION":13.19725865,"ECCENTRICITY":0.00014398,"INCLINATION":87.9229,"RA_OF_ASC_NODE":334.4166,"ARG_OF_PERICENTER":73.2767,"MEAN_ANOMALY":286.8524,"EPHEMERIS_TYPE":0,"CLASSIFICATION_TYPE":"U","NORAD_CAT_ID":55835,"ELEMENT_SET_NO":999,"REV_AT_EPOCH":13933,"BSTAR":8.3529639e-5,"MEAN_MOTION_DOT":4.6e-7,"MEAN_MOTION_DDOT":0},{"OBJECT_NAME":"ONEWEB-0537","OBJECT_ID":"2023-043A","EPOCH":"2026-01-20T01:50:11.433408","MEAN_MOTION":13.16595554,"ECCENTRICITY":0.00015358,"INCLINATION":87.9024,"RA_OF_ASC_NODE":258.2602,"ARG_OF_PERICENTER":88.0925,"MEAN_ANOMALY":272.0382,"EPHEMERIS_TYPE":0,"CLASSIFICATION_TYPE":"U","NORAD_CAT_ID":56046,"ELEMENT_SET_NO":999,"REV_AT_EPOCH":13947,"BSTAR":0.00010826609,"MEAN_MOTION_DOT":5.4e-7,"MEAN_MOTION_DDOT":0},{"OBJECT_NAME":"ONEWEB-0538","OBJECT_ID":"2023-043B","EPOCH":"2026-01-20T01:41:04.011648","MEAN_MOTION":13.1659447,"ECCENTRICITY":0.00012651,"INCLINATION":87.9024,"RA_OF_ASC_NODE":258.2647,"ARG_OF_PERICENTER":88.0555,"MEAN_ANOMALY":272.0721,"EPHEMERIS_TYPE":0,"CLASSIFICATION_TYPE":"U","NORAD_CAT_ID":56047,"ELEMENT_SET_NO":999,"REV_AT_EPOCH":13948,"BSTAR":-0.00020572105,"MEAN_MOTION_DOT":-6.6e-7,"MEAN_MOTION_DDOT":0}]
