ONEWEB-0662             
1 55822U 23029AC  26020.29956641 -.00000061  00000+0 -19892-3 0  9990
2 55822  87.9026 319.2361 0001610  66.2162 293.9137 13.14504333140008
ONEWEB-0663             
1 55823U 23029AD  26020.29542645  .00000069  00000+0  13696-3 0  9998
2 55823  87.9245 304.0035 0001394  62.9837 297.1439 13.20857190141622
ONEWEB-0664             
1 55824U 23029AE  26020.23844690  .00000058  00000+0  11156-3 0  9995
2 55824  87.9226 304.0142 0001951  68.0709 292.0632 13.20773194141614
ONEWEB-0665             
1 55825U 23029AF  26020.26152314  .00000136  00000+0  33233-3 0  9991
2 55825  87.9025 319.2159 0001553  67.1716 292.9577 13.14503303139973
ONEWEB-0666             
1 55826U 23029AG  26020.23213719  .00000083  00000+0  17185-3 0  9995
2 55826  87.9226 304.0051 0002030  96.6828 263.4537 13.20771862141620
ONEWEB-0667             
1 55827U 23029AH  26020.30158635  .00000051  00000+0  93364-4 0  9998
2 55827  87.9237 303.9278 0001677  69.7288 290.4026 13.20771735141621
ONEWEB-0669             
1 55828U 23029AJ  26020.22109594  .00000049  00000+0  89799-4 0  9994
2 55828  87.9224 303.9738 0002316  76.5393 283.5998 13.20771314141616
ONEWEB-0670             
1 55829U 23029AK  26020.23931364 -.00000271  00000+0 -76434-3 0  9994
2 55829  87.9025 319.2392 0001866  66.4274 293.7052 13.14501442139995
ONEWEB-0671             
1 55830U 23029AL  26020.29657880  .00000074  00000+0  15283-3 0  9994
2 55830  87.9235 334.4096 0001715  74.1258 286.0064 13.19724997139390
ONEWEB-0672             
1 55831U 23029AM  26020.29211595  .00000096  00000+0  20332-3 0  9999
2 55831  87.9231 303.9422 0001864  82.2878 277.8467 13.20772738141626
ONEWEB-0673             
1 55832U 23029AN  26020.27367609  .00000015  00000+0  59072-5 0  9992
2 55832  87.9244 334.3985 0001758  74.8584 285.2743 13.19725306139394
ONEWEB-0674             
1 55833U 23029AP  26020.28373067  .00000283  00000+0  72759-3 0  9991
2 55833  87.9023 319.2085 0001961  64.7358 295.3975 13.14503283139983
ONEWEB-0675             
1 55834U 23029AQ  26020.28868251  .00000089  00000+0  19031-3 0  9994
2 55834  87.9228 334.4165 0001713  89.4031 270.7298 13.19725984139418
ONEWEB-0720             
1 55835U 23029AR  26020.28077929  .00000046  00000+0  83530-4 0  9998
2 55835  87.9229 334.4166 0001439  73.2767 286.8524 13.19725865139332
ONEWEB-0537             
1 56046U 23043A   26020.07652122  .00000054  00000+0  10827-3 0  9997
2 56046  87.9024 258.2602 0001535  88.0925 272.0382 13.16595554139476
ONEWEB-0538             
1 56047U 23043B   26020.07018532 -.00000066  00000+0 -20572-3 0  9992
2 56047  87.9024 258.2647 0001265  88.0555 272.0721 13.16594470139489
